{
  "norad_id": 60321,
  "name": "STARLINK-32198",
  "history": [
    {
      "epoch": "2026-03-28T20:25:08.331168",
      "apogee_km": 476.3932871373072,
      "perigee_km": 474.39479748536814,
      "latitude_deg": -41.87837572937883,
      "longitude_deg": -66.22407647990622,
      "semi_major_axis_km": 6853.531042311337,
      "eccentricity": 0.0001458,
      "inclination_deg": 53.1599,
      "raan_deg": 208.0798,
      "arg_perigee_deg": 257.2613,
      "mean_anomaly_deg": 102.8225,
      "mean_motion_rev_day": 15.30140061
    }
  ]
}